CCSDS_OMM_VERS = 2.0
CREATION_DATE  = 
ORIGINATOR     = 

OBJECT_NAME    = STARLINK-35927
OBJECT_ID      = 2025-271H
CENTER_NAME    = EARTH
REF_FRAME      = TEME
TIME_SYSTEM    = UTC
MEAN_ELEMENT_THEORY = SGP/SGP4

EPOCH          = 2025-12-19T04:08:38.001120
MEAN_MOTION    = 15.49319898
ECCENTRICITY   = .00011872
INCLINATION    = 53.1596
RA_OF_ASC_NODE = 156.4518
ARG_OF_PERICENTER = 87.9629
MEAN_ANOMALY   = 272.1516

EPHEMERIS_TYPE = 0
CLASSIFICATION_TYPE = U
NORAD_CAT_ID   = 66624
ELEMENT_SET_NO = 999
REV_AT_EPOCH   = 520
BSTAR          = .10655885E-2
MEAN_MOTION_DOT = .59289E-3
MEAN_MOTION_DDOT = 0

CCSDS_OMM_VERS = 2.0
CREATION_DATE  = 
ORIGINATOR     = 

OBJECT_NAME    = STARLINK-35929
OBJECT_ID      = 2025-271J
CENTER_NAME    = EARTH
REF_FRAME      = TEME
TIME_SYSTEM    = UTC
MEAN_ELEMENT_THEORY = SGP/SGP4

EPOCH          = 2025-12-19T18:00:00.998784
MEAN_MOTION    = 15.40174112
ECCENTRICITY   = .0001358
INCLINATION    = 53.1590
RA_OF_ASC_NODE = 153.7430
ARG_OF_PERICENTER = 81.6312
MEAN_ANOMALY   = 234.2326

EPHEMERIS_TYPE = 0
CLASSIFICATION_TYPE = U
NORAD_CAT_ID   = 66625
ELEMENT_SET_NO = 999
REV_AT_EPOCH   = 536
BSTAR          = -.22415E-1
MEAN_MOTION_DOT = -.844186E-2
MEAN_MOTION_DDOT = 0

CCSDS_OMM_VERS = 2.0
CREATION_DATE  = 
ORIGINATOR     = 

OBJECT_NAME    = STARLINK-35902
OBJECT_ID      = 2025-271K
CENTER_NAME    = EARTH
REF_FRAME      = TEME
TIME_SYSTEM    = UTC
MEAN_ELEMENT_THEORY = SGP/SGP4

EPOCH          = 2025-12-19T18:00:00.998784
MEAN_MOTION    = 15.39609330
ECCENTRICITY   = .0001476
INCLINATION    = 53.1602
RA_OF_ASC_NODE = 153.8961
ARG_OF_PERICENTER = 72.8654
MEAN_ANOMALY   = 166.0018

EPHEMERIS_TYPE = 0
CLASSIFICATION_TYPE = U
NORAD_CAT_ID   = 66626
ELEMENT_SET_NO = 999
REV_AT_EPOCH   = 536
BSTAR          = .37653E-3
MEAN_MOTION_DOT = .14685E-3
MEAN_MOTION_DDOT = 0

CCSDS_OMM_VERS = 2.0
CREATION_DATE  = 
ORIGINATOR     = 

OBJECT_NAME    = STARLINK-35904
OBJECT_ID      = 2025-271L
CENTER_NAME    = EARTH
REF_FRAME      = TEME
TIME_SYSTEM    = UTC
MEAN_ELEMENT_THEORY = SGP/SGP4

EPOCH          = 2025-12-19T18:00:00.998784
MEAN_MOTION    = 15.39612197
ECCENTRICITY   = .0001046
INCLINATION    = 53.1593
RA_OF_ASC_NODE = 153.7935
ARG_OF_PERICENTER = 75.2715
MEAN_ANOMALY   = 215.1024

EPHEMERIS_TYPE = 0
CLASSIFICATION_TYPE = U
NORAD_CAT_ID   = 66627
ELEMENT_SET_NO = 999
REV_AT_EPOCH   = 521
BSTAR          = .27923E-3
MEAN_MOTION_DOT = .10782E-3
MEAN_MOTION_DDOT = 0

CCSDS_OMM_VERS = 2.0
CREATION_DATE  = 
ORIGINATOR     = 

OBJECT_NAME    = STARLINK-35862
OBJECT_ID      = 2025-271M
CENTER_NAME    = EARTH
REF_FRAME      = TEME
TIME_SYSTEM    = UTC
MEAN_ELEMENT_THEORY = SGP/SGP4

EPOCH          = 2025-12-18T21:54:35.856864
MEAN_MOTION    = 15.49385884
ECCENTRICITY   = .00009597
INCLINATION    = 53.1591
RA_OF_ASC_NODE = 157.6722
ARG_OF_PERICENTER = 75.8715
MEAN_ANOMALY   = 284.2400

EPHEMERIS_TYPE = 0
CLASSIFICATION_TYPE = U
NORAD_CAT_ID   = 66628
ELEMENT_SET_NO = 999
REV_AT_EPOCH   = 516
BSTAR          = .78885762E-3
MEAN_MOTION_DOT = .4379E-3
MEAN_MOTION_DDOT = 0

CCSDS_OMM_VERS = 2.0
CREATION_DATE  = 
ORIGINATOR     = 

OBJECT_NAME    = STARLINK-35956
OBJECT_ID      = 2025-271N
CENTER_NAME    = EARTH
REF_FRAME      = TEME
TIME_SYSTEM    = UTC
MEAN_ELEMENT_THEORY = SGP/SGP4

EPOCH          = 2025-12-18T16:00:00.999936
MEAN_MOTION    = 15.49463337
ECCENTRICITY   = .00005424
INCLINATION    = 53.1591
RA_OF_ASC_NODE = 158.8460
ARG_OF_PERICENTER = 63.7637
MEAN_ANOMALY   = 4.4961

EPHEMERIS_TYPE = 0
CLASSIFICATION_TYPE = U
NORAD_CAT_ID   = 66629
ELEMENT_SET_NO = 999
REV_AT_EPOCH   = 519
BSTAR          = .2238515E-3
MEAN_MOTION_DOT = .12088E-3
MEAN_MOTION_DDOT = 0

CCSDS_OMM_VERS = 2.0
CREATION_DATE  = 
ORIGINATOR     = 

OBJECT_NAME    = STARLINK-35949
OBJECT_ID      = 2025-271P
CENTER_NAME    = EARTH
REF_FRAME      = TEME
TIME_SYSTEM    = UTC
MEAN_ELEMENT_THEORY = SGP/SGP4

EPOCH          = 2025-12-19T07:10:57.239904
MEAN_MOTION    = 15.49285290
ECCENTRICITY   = .0000352
INCLINATION    = 53.1593
RA_OF_ASC_NODE = 155.8154
ARG_OF_PERICENTER = 144.7691
MEAN_ANOMALY   = 215.3341

EPHEMERIS_TYPE = 0
CLASSIFICATION_TYPE = U
NORAD_CAT_ID   = 66630
ELEMENT_SET_NO = 999
REV_AT_EPOCH   = 522
BSTAR          = .13858E-2
MEAN_MOTION_DOT = .77326E-3
MEAN_MOTION_DDOT = 0

CCSDS_OMM_VERS = 2.0
CREATION_DATE  = 
ORIGINATOR     = 

OBJECT_NAME    = STARLINK-35965
OBJECT_ID      = 2025-271Q
CENTER_NAME    = EARTH
REF_FRAME      = TEME
TIME_SYSTEM    = UTC
MEAN_ELEMENT_THEORY = SGP/SGP4

EPOCH          = 2025-12-19T18:00:00.998784
MEAN_MOTION    = 15.46950379
ECCENTRICITY   = .0001214
INCLINATION    = 53.1590
RA_OF_ASC_NODE = 153.6635
ARG_OF_PERICENTER = 75.7178
MEAN_ANOMALY   = 279.6895

EPHEMERIS_TYPE = 0
CLASSIFICATION_TYPE = U
NORAD_CAT_ID   = 66631
ELEMENT_SET_NO = 999
REV_AT_EPOCH   = 537
BSTAR          = -.42002E-1
MEAN_MOTION_DOT = -.1928555E-1
MEAN_MOTION_DDOT = 0

CCSDS_OMM_VERS = 2.0
CREATION_DATE  = 
ORIGINATOR     = 

OBJECT_NAME    = STARLINK-35973
OBJECT_ID      = 2025-271R
CENTER_NAME    = EARTH
REF_FRAME      = TEME
TIME_SYSTEM    = UTC
MEAN_ELEMENT_THEORY = SGP/SGP4

EPOCH          = 2025-12-19T17:11:23.683776
MEAN_MOTION    = 15.39629734
ECCENTRICITY   = .0000717
INCLINATION    = 53.1599
RA_OF_ASC_NODE = 154.1548
ARG_OF_PERICENTER = 71.7861
MEAN_ANOMALY   = 288.3222

EPHEMERIS_TYPE = 0
CLASSIFICATION_TYPE = U
NORAD_CAT_ID   = 66632
ELEMENT_SET_NO = 999
REV_AT_EPOCH   = 524
BSTAR          = .66216E-3
MEAN_MOTION_DOT = .26186E-3
MEAN_MOTION_DDOT = 0

CCSDS_OMM_VERS = 2.0
CREATION_DATE  = 
ORIGINATOR     = 

OBJECT_NAME    = STARLINK-35948
OBJECT_ID      = 2025-271S
CENTER_NAME    = EARTH
REF_FRAME      = TEME
TIME_SYSTEM    = UTC
MEAN_ELEMENT_THEORY = SGP/SGP4

EPOCH          = 2025-12-19T17:10:55.246080
MEAN_MOTION    = 15.39629537
ECCENTRICITY   = .0001044
INCLINATION    = 53.1596
RA_OF_ASC_NODE = 154.1516
ARG_OF_PERICENTER = 81.5844
MEAN_ANOMALY   = 278.5279

EPHEMERIS_TYPE = 0
CLASSIFICATION_TYPE = U
NORAD_CAT_ID   = 66633
ELEMENT_SET_NO = 999
REV_AT_EPOCH   = 528
BSTAR          = .67904E-3
MEAN_MOTION_DOT = .26866E-3
MEAN_MOTION_DDOT = 0

CCSDS_OMM_VERS = 2.0
CREATION_DATE  = 
ORIGINATOR     = 

OBJECT_NAME    = STARLINK-35967
OBJECT_ID      = 2025-271T
CENTER_NAME    = EARTH
REF_FRAME      = TEME
TIME_SYSTEM    = UTC
MEAN_ELEMENT_THEORY = SGP/SGP4

EPOCH          = 2025-12-19T18:00:00.998784
MEAN_MOTION    = 15.39613431
ECCENTRICITY   = .0001123
INCLINATION    = 53.1603
RA_OF_ASC_NODE = 153.9398
ARG_OF_PERICENTER = 60.4476
MEAN_ANOMALY   = 154.4908

EPHEMERIS_TYPE = 0
CLASSIFICATION_TYPE = U
NORAD_CAT_ID   = 66634
ELEMENT_SET_NO = 999
REV_AT_EPOCH   = 530
BSTAR          = .35352E-3
MEAN_MOTION_DOT = .13763E-3
MEAN_MOTION_DDOT = 0

CCSDS_OMM_VERS = 2.0
CREATION_DATE  = 
ORIGINATOR     = 

OBJECT_NAME    = STARLINK-35955
OBJECT_ID      = 2025-271U
CENTER_NAME    = EARTH
REF_FRAME      = TEME
TIME_SYSTEM    = UTC
MEAN_ELEMENT_THEORY = SGP/SGP4

EPOCH          = 2025-12-19T18:00:00.998784
MEAN_MOTION    = 15.39609308
ECCENTRICITY   = .0001226
INCLINATION    = 53.1599
RA_OF_ASC_NODE = 153.8387
ARG_OF_PERICENTER = 78.9932
MEAN_ANOMALY   = 187.4630

EPHEMERIS_TYPE = 0
CLASSIFICATION_TYPE = U
NORAD_CAT_ID   = 66635
ELEMENT_SET_NO = 999
REV_AT_EPOCH   = 537
BSTAR          = .36433E-3
MEAN_MOTION_DOT = .14195E-3
MEAN_MOTION_DDOT = 0

CCSDS_OMM_VERS = 2.0
CREATION_DATE  = 
ORIGINATOR     = 

OBJECT_NAME    = STARLINK-35968
OBJECT_ID      = 2025-271V
CENTER_NAME    = EARTH
REF_FRAME      = TEME
TIME_SYSTEM    = UTC
MEAN_ELEMENT_THEORY = SGP/SGP4

EPOCH          = 2025-12-19T18:00:00.998784
MEAN_MOTION    = 15.39613469
ECCENTRICITY   = .000072
INCLINATION    = 53.1602
RA_OF_ASC_NODE = 153.8888
ARG_OF_PERICENTER = 73.7460
MEAN_ANOMALY   = 166.9452

EPHEMERIS_TYPE = 0
CLASSIFICATION_TYPE = U
NORAD_CAT_ID   = 66636
ELEMENT_SET_NO = 999
REV_AT_EPOCH   = 537
BSTAR          = .36483E-3
MEAN_MOTION_DOT = .14218E-3
MEAN_MOTION_DDOT = 0

CCSDS_OMM_VERS = 2.0
CREATION_DATE  = 
ORIGINATOR     = 

OBJECT_NAME    = STARLINK-35953
OBJECT_ID      = 2025-271W
CENTER_NAME    = EARTH
REF_FRAME      = TEME
TIME_SYSTEM    = UTC
MEAN_ELEMENT_THEORY = SGP/SGP4

EPOCH          = 2025-12-19T18:00:00.998784
MEAN_MOTION    = 15.39611415
ECCENTRICITY   = .0001256
INCLINATION    = 53.1594
RA_OF_ASC_NODE = 153.7867
ARG_OF_PERICENTER = 63.0123
MEAN_ANOMALY   = 229.1973

EPHEMERIS_TYPE = 0
CLASSIFICATION_TYPE = U
NORAD_CAT_ID   = 66637
ELEMENT_SET_NO = 999
REV_AT_EPOCH   = 537
BSTAR          = .27395E-3
MEAN_MOTION_DOT = .1057E-3
MEAN_MOTION_DDOT = 0

CCSDS_OMM_VERS = 2.0
CREATION_DATE  = 
ORIGINATOR     = 

OBJECT_NAME    = STARLINK-35972
OBJECT_ID      = 2025-271X
CENTER_NAME    = EARTH
REF_FRAME      = TEME
TIME_SYSTEM    = UTC
MEAN_ELEMENT_THEORY = SGP/SGP4

EPOCH          = 2025-12-19T18:00:00.998784
MEAN_MOTION    = 15.40809640
ECCENTRICITY   = .0001487
INCLINATION    = 53.1592
RA_OF_ASC_NODE = 153.6859
ARG_OF_PERICENTER = 107.0370
MEAN_ANOMALY   = 236.0200

EPHEMERIS_TYPE = 0
CLASSIFICATION_TYPE = U
NORAD_CAT_ID   = 66638
ELEMENT_SET_NO = 999
REV_AT_EPOCH   = 537
BSTAR          = -.44417E-1
MEAN_MOTION_DOT = -.1651999E-1
MEAN_MOTION_DDOT = 0

